{"type":"FeatureCollection","metadata":{"title":"Monuments enregistrés (SMR) ≤ 5 km de Grove/Tullaghanbrogue, Co. Kilkenny","source":"National Monuments Service (NMS), Department of Housing, Local Government and Heritage — Archaeological Survey of Ireland, Sites and Monuments Record (SMR), Open Data","source_dataset_version":"01/12/2025 (snippet de l'item ArcGIS : \"Open Data Bulk Data Downloads (version date: 01/12/2025)\")","source_service":"https://services-eu1.arcgis.com/HyjXgkV6KGMSF3jt/ArcGIS/rest/services/SMROpenData/FeatureServer/0","source_item_page":"https://www.arcgis.com/home/item.html?id=e31a0f6045c146e5b33cf68a68be12b1","license":"Creative Commons Attribution 4.0 International (CC BY 4.0) — https://creativecommons.org/licenses/by/4.0/. Copyright Government of Ireland. Confirmé le 2026-09-28 par lecture directe du champ \"licenseInfo\" de l'item ArcGIS ci-dessus (National Monuments Service) — [FAIT].","extraction_note":"134 points ponctuels (monuments SMR) situés à ≤ 5 km du point de départ (52.600940, -7.328378 = KK023-031004-, Grove, Co. Kilkenny), plus les 2 polygones de zone de notification RMP couvrant le complexe de Grove/Tullaghanbrogue (R139005, R139014). Le champ WEB_NOTES (texte intégral des notices) a été volontairement omis de ce fichier ; il est cité et traduit dans SITES.md avec sa source. Coordonnées arrondies à 6 décimales.","disclaimer_zone":"La zone de notification (features kind=\"zone_notification\") est une zone administrative dans laquelle tout travail au sol doit être notifié au National Monuments Service (National Monuments Acts) : elle NE définit PAS l'étendue réelle du monument, qui peut être plus petite, plus grande, ou décalée par rapport au polygone.","legal_warning":"Tous les monuments de ce fichier sont enregistrés par le National Monuments Service. En Irlande, l'usage d'un détecteur de métaux pour rechercher des objets archéologiques sans le consentement écrit du Ministre est une infraction pénale (National Monuments (Amendment) Act 1987, s.2). Ce fichier est un inventaire patrimonial ; voir docs/zones/grove-kilkenny/SITES.md et CADRE_LEGAL.md.","generated":"2026-09-28"},"features":[{"type":"Feature","geometry":{"type":"Point","coordinates":[-7.328378,52.60094]},"properties":{"SMRS":"KK023-031004-","ENTITY_ID":"KK05598","MONUMENT_CLASS":"Moated site","TOWNLAND":"GROVE (Shillelogher By.)","dist_m":0,"zone_id":"R139005","website_link":"https://heritagedata.maps.arcgis.com/apps/webappviewer/index.html?id=0c9eb9575b544081b0d296436d8f60f8&query=18a4b61b268-layer-9%2CSMRS%2CKK023-031004-","label_fr":"Moated site du complexe de Grove/Tullaghanbrogue (point de départ)","complex":"grove-tullaghanbrogue"}},{"type":"Feature","geometry":{"type":"Point","coordinates":[-7.328057,52.600696]},"properties":{"SMRS":"KK023-031001-","ENTITY_ID":"KK02244","MONUMENT_CLASS":"Settlement deserted - medieval","TOWNLAND":"GROVE (Shillelogher By.)","dist_m":35,"zone_id":"R139005","website_link":"https://heritagedata.maps.arcgis.com/apps/webappviewer/index.html?id=0c9eb9575b544081b0d296436d8f60f8&query=18a4b61b268-layer-9%2CSMRS%2CKK023-031001-","label_fr":"Village déserté médiéval de Tullaghanbrogue, avec puits et fondations mentionnés par Carrigan","complex":"grove-tullaghanbrogue"}},{"type":"Feature","geometry":{"type":"Point","coordinates":[-7.3289,52.600638]},"properties":{"SMRS":"KK023-093----","ENTITY_ID":"KK02342","MONUMENT_CLASS":"Castle - unclassified","TOWNLAND":"GROVE (Shillelogher By.)","dist_m":49,"zone_id":"R139005","website_link":"https://heritagedata.maps.arcgis.com/apps/webappviewer/index.html?id=0c9eb9575b544081b0d296436d8f60f8&query=18a4b61b268-layer-9%2CSMRS%2CKK023-093----","label_fr":"Château figuré sur le Down Survey (1655-6), au-dessus de la motte","complex":"grove-tullaghanbrogue"}},{"type":"Feature","geometry":{"type":"Point","coordinates":[-7.3289,52.600638]},"properties":{"SMRS":"KK023-032----","ENTITY_ID":"KK02247","MONUMENT_CLASS":"Castle - motte","TOWNLAND":"GROVE (Shillelogher By.)","dist_m":49,"zone_id":"R139005","website_link":"https://heritagedata.maps.arcgis.com/apps/webappviewer/index.html?id=0c9eb9575b544081b0d296436d8f60f8&query=18a4b61b268-layer-9%2CSMRS%2CKK023-032----","label_fr":"Motte castrale, manoir de Tullaghanbrogue (St Leger)","complex":"grove-tullaghanbrogue"}},{"type":"Feature","geometry":{"type":"Point","coordinates":[-7.327552,52.600927]},"properties":{"SMRS":"KK023-031005-","ENTITY_ID":"KK05599","MONUMENT_CLASS":"Enclosure","TOWNLAND":"GROVE (Shillelogher By.)","dist_m":56,"zone_id":"R139005","website_link":"https://heritagedata.maps.arcgis.com/apps/webappviewer/index.html?id=0c9eb9575b544081b0d296436d8f60f8&query=18a4b61b268-layer-9%2CSMRS%2CKK023-031005-","label_fr":"Grande enceinte (48 x 60,5 m) à l'est du moated site","complex":"grove-tullaghanbrogue"}},{"type":"Feature","geometry":{"type":"Point","coordinates":[-7.332056,52.600817]},"properties":{"SMRS":"KK023-030003-","ENTITY_ID":"KK02241","MONUMENT_CLASS":"Tomb - chest tomb","TOWNLAND":"GROVE (Shillelogher By.)","dist_m":249,"zone_id":"R139014","website_link":"https://heritagedata.maps.arcgis.com/apps/webappviewer/index.html?id=0c9eb9575b544081b0d296436d8f60f8&query=18a4b61b268-layer-9%2CSMRS%2CKK023-030003-","label_fr":"Tombeau-coffre d'Oliver Sentleger (+1597) et Ellen Comerford","complex":"grove-tullaghanbrogue"}},{"type":"Feature","geometry":{"type":"Point","coordinates":[-7.33207,52.600826]},"properties":{"SMRS":"KK023-030001-","ENTITY_ID":"KK02239","MONUMENT_CLASS":"Church","TOWNLAND":"GROVE (Shillelogher By.)","dist_m":250,"zone_id":"R139014","website_link":"https://heritagedata.maps.arcgis.com/apps/webappviewer/index.html?id=0c9eb9575b544081b0d296436d8f60f8&query=18a4b61b268-layer-9%2CSMRS%2CKK023-030001-","label_fr":"Église paroissiale médiévale de Tullaghanbrogue (ruine)","complex":"grove-tullaghanbrogue"}},{"type":"Feature","geometry":{"type":"Point","coordinates":[-7.332116,52.600737]},"properties":{"SMRS":"KK023-030005-","ENTITY_ID":"KK02243","MONUMENT_CLASS":"Headstone","TOWNLAND":"GROVE (Shillelogher By.)","dist_m":253,"zone_id":"R139014","website_link":"https://heritagedata.maps.arcgis.com/apps/webappviewer/index.html?id=0c9eb9575b544081b0d296436d8f60f8&query=18a4b61b268-layer-9%2CSMRS%2CKK023-030005-","label_fr":"Stèle Quenlin (1696/1725)","complex":"grove-tullaghanbrogue"}},{"type":"Feature","geometry":{"type":"Point","coordinates":[-7.33216,52.600791]},"properties":{"SMRS":"KK023-030004-","ENTITY_ID":"KK02242","MONUMENT_CLASS":"Graveslab","TOWNLAND":"GROVE (Shillelogher By.)","dist_m":256,"zone_id":"R139014","website_link":"https://heritagedata.maps.arcgis.com/apps/webappviewer/index.html?id=0c9eb9575b544081b0d296436d8f60f8&query=18a4b61b268-layer-9%2CSMRS%2CKK023-030004-","label_fr":"Dalle funéraire à croix, fin XIIIe/XIVe s.","complex":"grove-tullaghanbrogue"}},{"type":"Feature","geometry":{"type":"Point","coordinates":[-7.33222,52.600674]},"properties":{"SMRS":"KK023-030002-","ENTITY_ID":"KK02240","MONUMENT_CLASS":"Graveyard","TOWNLAND":"GROVE (Shillelogher By.)","dist_m":261,"zone_id":"R139014","website_link":"https://heritagedata.maps.arcgis.com/apps/webappviewer/index.html?id=0c9eb9575b544081b0d296436d8f60f8&query=18a4b61b268-layer-9%2CSMRS%2CKK023-030002-","label_fr":"Cimetière de Tullaghanbrogue (\"Roilig a Tulacháin\")","complex":"grove-tullaghanbrogue"}},{"type":"Feature","geometry":{"type":"Point","coordinates":[-7.339258,52.594036]},"properties":{"SMRS":"KK023-033----","ENTITY_ID":"KK02248","MONUMENT_CLASS":"Ringfort - rath","TOWNLAND":"AGHENDERRY","dist_m":1063,"zone_id":"R138977","website_link":"https://heritagedata.maps.arcgis.com/apps/webappviewer/index.html?id=0c9eb9575b544081b0d296436d8f60f8&query=18a4b61b268-layer-9%2CSMRS%2CKK023-033----","label_fr":"Ringfort d'Aghenderry","complex":null}},{"type":"Feature","geometry":{"type":"Point","coordinates":[-7.337808,52.591376]},"properties":{"SMRS":"KK023-034----","ENTITY_ID":"KK02249","MONUMENT_CLASS":"Enclosure","TOWNLAND":"KYLEANDANGAN","dist_m":1240,"zone_id":"R138964","website_link":"https://heritagedata.maps.arcgis.com/apps/webappviewer/index.html?id=0c9eb9575b544081b0d296436d8f60f8&query=18a4b61b268-layer-9%2CSMRS%2CKK023-034----","label_fr":"Enceinte — Kyleandangan","complex":null}},{"type":"Feature","geometry":{"type":"Point","coordinates":[-7.30954,52.5973]},"properties":{"SMRS":"KK023-038----","ENTITY_ID":"KK02259","MONUMENT_CLASS":"Enclosure","TOWNLAND":"CHURCH HILL","dist_m":1335,"zone_id":"R138992","website_link":"https://heritagedata.maps.arcgis.com/apps/webappviewer/index.html?id=0c9eb9575b544081b0d296436d8f60f8&query=18a4b61b268-layer-9%2CSMRS%2CKK023-038----","label_fr":"Enceinte — Church Hill","complex":null}},{"type":"Feature","geometry":{"type":"Point","coordinates":[-7.308768,52.59849]},"properties":{"SMRS":"KK023-037----","ENTITY_ID":"KK02258","MONUMENT_CLASS":"Enclosure","TOWNLAND":"CHURCH HILL","dist_m":1352,"zone_id":"R138997","website_link":"https://heritagedata.maps.arcgis.com/apps/webappviewer/index.html?id=0c9eb9575b544081b0d296436d8f60f8&query=18a4b61b268-layer-9%2CSMRS%2CKK023-037----","label_fr":"Enceinte — Church Hill","complex":null}},{"type":"Feature","geometry":{"type":"Point","coordinates":[-7.307517,52.600164]},"properties":{"SMRS":"KK023-036002-","ENTITY_ID":"KK02253","MONUMENT_CLASS":"Graveyard","TOWNLAND":"CHURCH HILL","dist_m":1412,"zone_id":"R139009","website_link":"https://heritagedata.maps.arcgis.com/apps/webappviewer/index.html?id=0c9eb9575b544081b0d296436d8f60f8&query=18a4b61b268-layer-9%2CSMRS%2CKK023-036002-","label_fr":"Cimetière — Church Hill","complex":null}},{"type":"Feature","geometry":{"type":"Point","coordinates":[-7.30744,52.600334]},"properties":{"SMRS":"KK023-036004-","ENTITY_ID":"KK02255","MONUMENT_CLASS":"Wall monument","TOWNLAND":"CHURCH HILL","dist_m":1416,"zone_id":"R139009","website_link":"https://heritagedata.maps.arcgis.com/apps/webappviewer/index.html?id=0c9eb9575b544081b0d296436d8f60f8&query=18a4b61b268-layer-9%2CSMRS%2CKK023-036004-","label_fr":"Monument mural — Church Hill","complex":null}},{"type":"Feature","geometry":{"type":"Point","coordinates":[-7.307426,52.600325]},"properties":{"SMRS":"KK023-036005-","ENTITY_ID":"KK02256","MONUMENT_CLASS":"Architectural feature","TOWNLAND":"CHURCH HILL","dist_m":1417,"zone_id":"R139009","website_link":"https://heritagedata.maps.arcgis.com/apps/webappviewer/index.html?id=0c9eb9575b544081b0d296436d8f60f8&query=18a4b61b268-layer-9%2CSMRS%2CKK023-036005-","label_fr":"Élément architectural — Church Hill","complex":null}},{"type":"Feature","geometry":{"type":"Point","coordinates":[-7.307426,52.600325]},"properties":{"SMRS":"KK023-036003-","ENTITY_ID":"KK02254","MONUMENT_CLASS":"Cross - Churchyard cross","TOWNLAND":"CHURCH HILL","dist_m":1417,"zone_id":"R139009","website_link":"https://heritagedata.maps.arcgis.com/apps/webappviewer/index.html?id=0c9eb9575b544081b0d296436d8f60f8&query=18a4b61b268-layer-9%2CSMRS%2CKK023-036003-","label_fr":"Croix de cimetière — Church Hill","complex":null}},{"type":"Feature","geometry":{"type":"Point","coordinates":[-7.307367,52.600298]},"properties":{"SMRS":"KK023-036001-","ENTITY_ID":"KK02252","MONUMENT_CLASS":"Church","TOWNLAND":"CHURCH HILL","dist_m":1421,"zone_id":"R139009","website_link":"https://heritagedata.maps.arcgis.com/apps/webappviewer/index.html?id=0c9eb9575b544081b0d296436d8f60f8&query=18a4b61b268-layer-9%2CSMRS%2CKK023-036001-","label_fr":"Église médiévale de Grange (Church Hill), dédiée à la Sainte Croix","complex":null}},{"type":"Feature","geometry":{"type":"Point","coordinates":[-7.318513,52.588867]},"properties":{"SMRS":"KK023-050----","ENTITY_ID":"KK02284","MONUMENT_CLASS":"Fulacht fia","TOWNLAND":"BALLYBUR LOWER","dist_m":1499,"zone_id":"R138951","website_link":"https://heritagedata.maps.arcgis.com/apps/webappviewer/index.html?id=0c9eb9575b544081b0d296436d8f60f8&query=18a4b61b268-layer-9%2CSMRS%2CKK023-050----","label_fr":"Fulacht fia (foyer culinaire) — Ballybur Lower","complex":null}},{"type":"Feature","geometry":{"type":"Point","coordinates":[-7.305647,52.600809]},"properties":{"SMRS":"KK023-094----","ENTITY_ID":"KK02343","MONUMENT_CLASS":"Ritual site - holy well","TOWNLAND":"CHURCH HILL","dist_m":1535,"zone_id":null,"website_link":"https://heritagedata.maps.arcgis.com/apps/webappviewer/index.html?id=0c9eb9575b544081b0d296436d8f60f8&query=18a4b61b268-layer-9%2CSMRS%2CKK023-094----","label_fr":"Puits sacré de Grange (\"Patron Well\"), pattern du 15 août","complex":null}},{"type":"Feature","geometry":{"type":"Point","coordinates":[-7.336301,52.613928]},"properties":{"SMRS":"KK023-132----","ENTITY_ID":"KK05235","MONUMENT_CLASS":"Enclosure","TOWNLAND":"GRANGE (Shillelogher By.)","dist_m":1540,"zone_id":"R180558","website_link":"https://heritagedata.maps.arcgis.com/apps/webappviewer/index.html?id=0c9eb9575b544081b0d296436d8f60f8&query=18a4b61b268-layer-9%2CSMRS%2CKK023-132----","label_fr":"Enceinte — Grange (Shillelogher)","complex":null}},{"type":"Feature","geometry":{"type":"Point","coordinates":[-7.306015,52.605503]},"properties":{"SMRS":"KK023-035----","ENTITY_ID":"KK02250","MONUMENT_CLASS":"Enclosure - large enclosure","TOWNLAND":"RAHEENDUFF (Shillelogher By.)","dist_m":1593,"zone_id":"R139038","website_link":"https://heritagedata.maps.arcgis.com/apps/webappviewer/index.html?id=0c9eb9575b544081b0d296436d8f60f8&query=18a4b61b268-layer-9%2CSMRS%2CKK023-035----","label_fr":"Grande enceinte — Raheenduff (Shillelogher)","complex":null}},{"type":"Feature","geometry":{"type":"Point","coordinates":[-7.312037,52.590546]},"properties":{"SMRS":"KK023-169----","ENTITY_ID":"KK05536","MONUMENT_CLASS":"Enclosure","TOWNLAND":"BALLYBUR LOWER","dist_m":1598,"zone_id":"R183626","website_link":"https://heritagedata.maps.arcgis.com/apps/webappviewer/index.html?id=0c9eb9575b544081b0d296436d8f60f8&query=18a4b61b268-layer-9%2CSMRS%2CKK023-169----","label_fr":"Enceinte — Ballybur Lower","complex":null}},{"type":"Feature","geometry":{"type":"Point","coordinates":[-7.345181,52.584874]},"properties":{"SMRS":"KK022-021003-","ENTITY_ID":"KK02153","MONUMENT_CLASS":"Ecclesiastical enclosure","TOWNLAND":"DESART DEMESNE","dist_m":2117,"zone_id":"R138936","website_link":"https://heritagedata.maps.arcgis.com/apps/webappviewer/index.html?id=0c9eb9575b544081b0d296436d8f60f8&query=18a4b61b268-layer-9%2CSMRS%2CKK022-021003-","label_fr":"Enclos ecclésiastique — Desart Demesne","complex":null}},{"type":"Feature","geometry":{"type":"Point","coordinates":[-7.345181,52.584874]},"properties":{"SMRS":"KK022-021001-","ENTITY_ID":"KK02151","MONUMENT_CLASS":"Church","TOWNLAND":"DESART DEMESNE","dist_m":2117,"zone_id":"R138936","website_link":"https://heritagedata.maps.arcgis.com/apps/webappviewer/index.html?id=0c9eb9575b544081b0d296436d8f60f8&query=18a4b61b268-layer-9%2CSMRS%2CKK022-021001-","label_fr":"Église de Kilfeachin/Desart (St Feichín)","complex":null}},{"type":"Feature","geometry":{"type":"Point","coordinates":[-7.345181,52.584874]},"properties":{"SMRS":"KK022-021004-","ENTITY_ID":"KK02154","MONUMENT_CLASS":"Ritual site - holy well","TOWNLAND":"DESART DEMESNE","dist_m":2117,"zone_id":"R138936","website_link":"https://heritagedata.maps.arcgis.com/apps/webappviewer/index.html?id=0c9eb9575b544081b0d296436d8f60f8&query=18a4b61b268-layer-9%2CSMRS%2CKK022-021004-","label_fr":"Puits sacré de St Feichín, Desart","complex":null}},{"type":"Feature","geometry":{"type":"Point","coordinates":[-7.345181,52.584874]},"properties":{"SMRS":"KK022-021002-","ENTITY_ID":"KK02152","MONUMENT_CLASS":"Graveyard","TOWNLAND":"DESART DEMESNE","dist_m":2117,"zone_id":"R138936","website_link":"https://heritagedata.maps.arcgis.com/apps/webappviewer/index.html?id=0c9eb9575b544081b0d296436d8f60f8&query=18a4b61b268-layer-9%2CSMRS%2CKK022-021002-","label_fr":"Cimetière — Desart Demesne","complex":null}},{"type":"Feature","geometry":{"type":"Point","coordinates":[-7.298958,52.593507]},"properties":{"SMRS":"KK023-039----","ENTITY_ID":"KK02260","MONUMENT_CLASS":"Castle - tower house","TOWNLAND":"BALLYBUR UPPER","dist_m":2152,"zone_id":"R138975","website_link":"https://heritagedata.maps.arcgis.com/apps/webappviewer/index.html?id=0c9eb9575b544081b0d296436d8f60f8&query=18a4b61b268-layer-9%2CSMRS%2CKK023-039----","label_fr":"Tower house de Ballybur (famille Comerford)","complex":null}},{"type":"Feature","geometry":{"type":"Point","coordinates":[-7.311984,52.619353]},"properties":{"SMRS":"KK023-001----","ENTITY_ID":"KK02192","MONUMENT_CLASS":"Enclosure","TOWNLAND":"CASTLEINCH OR INCHYOLAGHAN","dist_m":2327,"zone_id":"R139127","website_link":"https://heritagedata.maps.arcgis.com/apps/webappviewer/index.html?id=0c9eb9575b544081b0d296436d8f60f8&query=18a4b61b268-layer-9%2CSMRS%2CKK023-001----","label_fr":"Enceinte — Castleinch/Inchyolaghan","complex":null}},{"type":"Feature","geometry":{"type":"Point","coordinates":[-7.296623,52.590015]},"properties":{"SMRS":"KK023-051----","ENTITY_ID":"KK02285","MONUMENT_CLASS":"Burnt spread","TOWNLAND":"BALLYBUR UPPER","dist_m":2465,"zone_id":"R138955","website_link":"https://heritagedata.maps.arcgis.com/apps/webappviewer/index.html?id=0c9eb9575b544081b0d296436d8f60f8&query=18a4b61b268-layer-9%2CSMRS%2CKK023-051----","label_fr":"Épandage de pierres brûlées — Ballybur Upper","complex":null}},{"type":"Feature","geometry":{"type":"Point","coordinates":[-7.320865,52.577968]},"properties":{"SMRS":"KK023-065----","ENTITY_ID":"KK02306","MONUMENT_CLASS":"Fulacht fia","TOWNLAND":"BALLYMACK (Desart)","dist_m":2604,"zone_id":"R138907","website_link":"https://heritagedata.maps.arcgis.com/apps/webappviewer/index.html?id=0c9eb9575b544081b0d296436d8f60f8&query=18a4b61b268-layer-9%2CSMRS%2CKK023-065----","label_fr":"Fulacht fia (foyer culinaire) — Ballymack (Desart)","complex":null}},{"type":"Feature","geometry":{"type":"Point","coordinates":[-7.334377,52.577182]},"properties":{"SMRS":"KK023-064----","ENTITY_ID":"KK02305","MONUMENT_CLASS":"Enclosure","TOWNLAND":"BOOLY","dist_m":2673,"zone_id":"R138903","website_link":"https://heritagedata.maps.arcgis.com/apps/webappviewer/index.html?id=0c9eb9575b544081b0d296436d8f60f8&query=18a4b61b268-layer-9%2CSMRS%2CKK023-064----","label_fr":"Enceinte — Booly","complex":null}},{"type":"Feature","geometry":{"type":"Point","coordinates":[-7.351548,52.580396]},"properties":{"SMRS":"KK022-020----","ENTITY_ID":"KK02149","MONUMENT_CLASS":"Enclosure - large enclosure","TOWNLAND":"DESART DEMESNE","dist_m":2769,"zone_id":"R138913","website_link":"https://heritagedata.maps.arcgis.com/apps/webappviewer/index.html?id=0c9eb9575b544081b0d296436d8f60f8&query=18a4b61b268-layer-9%2CSMRS%2CKK022-020----","label_fr":"Grande enceinte — Desart Demesne","complex":null}},{"type":"Feature","geometry":{"type":"Point","coordinates":[-7.297658,52.619395]},"properties":{"SMRS":"KK023-002----","ENTITY_ID":"KK02193","MONUMENT_CLASS":"Castle - unclassified","TOWNLAND":"CASTLEINCH OR INCHYOLAGHAN","dist_m":2918,"zone_id":"R139130","website_link":"https://heritagedata.maps.arcgis.com/apps/webappviewer/index.html?id=0c9eb9575b544081b0d296436d8f60f8&query=18a4b61b268-layer-9%2CSMRS%2CKK023-002----","label_fr":"Château de Castleinch (Comerford, puis Cuffe après 1650)","complex":null}},{"type":"Feature","geometry":{"type":"Point","coordinates":[-7.301048,52.62168]},"properties":{"SMRS":"KK019-038----","ENTITY_ID":"KK01827","MONUMENT_CLASS":"Water mill - horizontal-wheeled","TOWNLAND":"CASTLEINCH OR INCHYOLAGHAN","dist_m":2954,"zone_id":"R139140","website_link":"https://heritagedata.maps.arcgis.com/apps/webappviewer/index.html?id=0c9eb9575b544081b0d296436d8f60f8&query=18a4b61b268-layer-9%2CSMRS%2CKK019-038----","label_fr":"Moulin à roue horizontale examiné par A.T. Lucas pour le National Museum (1955)","complex":null}},{"type":"Feature","geometry":{"type":"Point","coordinates":[-7.296607,52.619577]},"properties":{"SMRS":"KK023-003004-","ENTITY_ID":"KK02198","MONUMENT_CLASS":"Tomb - effigial","TOWNLAND":"CASTLEINCH OR INCHYOLAGHAN","dist_m":2983,"zone_id":"R139130","website_link":"https://heritagedata.maps.arcgis.com/apps/webappviewer/index.html?id=0c9eb9575b544081b0d296436d8f60f8&query=18a4b61b268-layer-9%2CSMRS%2CKK023-003004-","label_fr":"Tombeau à effigie — Castleinch/Inchyolaghan","complex":null}},{"type":"Feature","geometry":{"type":"Point","coordinates":[-7.296577,52.619595]},"properties":{"SMRS":"KK023-003002-","ENTITY_ID":"KK02196","MONUMENT_CLASS":"Graveyard","TOWNLAND":"CASTLEINCH OR INCHYOLAGHAN","dist_m":2986,"zone_id":"R139130","website_link":"https://heritagedata.maps.arcgis.com/apps/webappviewer/index.html?id=0c9eb9575b544081b0d296436d8f60f8&query=18a4b61b268-layer-9%2CSMRS%2CKK023-003002-","label_fr":"Cimetière — Castleinch/Inchyolaghan","complex":null}},{"type":"Feature","geometry":{"type":"Point","coordinates":[-7.296621,52.619649]},"properties":{"SMRS":"KK023-003001-","ENTITY_ID":"KK02195","MONUMENT_CLASS":"Church","TOWNLAND":"CASTLEINCH OR INCHYOLAGHAN","dist_m":2988,"zone_id":"R139130","website_link":"https://heritagedata.maps.arcgis.com/apps/webappviewer/index.html?id=0c9eb9575b544081b0d296436d8f60f8&query=18a4b61b268-layer-9%2CSMRS%2CKK023-003001-","label_fr":"Église de Castleinch/Inchyolaghan (St David)","complex":null}},{"type":"Feature","geometry":{"type":"Point","coordinates":[-7.296531,52.619685]},"properties":{"SMRS":"KK023-003003-","ENTITY_ID":"KK02197","MONUMENT_CLASS":"Wall monument","TOWNLAND":"CASTLEINCH OR INCHYOLAGHAN","dist_m":2995,"zone_id":"R139130","website_link":"https://heritagedata.maps.arcgis.com/apps/webappviewer/index.html?id=0c9eb9575b544081b0d296436d8f60f8&query=18a4b61b268-layer-9%2CSMRS%2CKK023-003003-","label_fr":"Monument mural — Castleinch/Inchyolaghan","complex":null}},{"type":"Feature","geometry":{"type":"Point","coordinates":[-7.364287,52.585139]},"properties":{"SMRS":"KK022-019001-","ENTITY_ID":"KK02147","MONUMENT_CLASS":"Church","TOWNLAND":"GREATWOOD","dist_m":2995,"zone_id":"R138934","website_link":"https://heritagedata.maps.arcgis.com/apps/webappviewer/index.html?id=0c9eb9575b544081b0d296436d8f60f8&query=18a4b61b268-layer-9%2CSMRS%2CKK022-019001-","label_fr":"Église — Greatwood","complex":null}},{"type":"Feature","geometry":{"type":"Point","coordinates":[-7.364287,52.585139]},"properties":{"SMRS":"KK022-019002-","ENTITY_ID":"KK02148","MONUMENT_CLASS":"Ecclesiastical enclosure","TOWNLAND":"GREATWOOD","dist_m":2995,"zone_id":"R138934","website_link":"https://heritagedata.maps.arcgis.com/apps/webappviewer/index.html?id=0c9eb9575b544081b0d296436d8f60f8&query=18a4b61b268-layer-9%2CSMRS%2CKK022-019002-","label_fr":"Enclos ecclésiastique — Greatwood","complex":null}},{"type":"Feature","geometry":{"type":"Point","coordinates":[-7.310817,52.576122]},"properties":{"SMRS":"KK023-170----","ENTITY_ID":"KK05839","MONUMENT_CLASS":"Enclosure","TOWNLAND":"FARMLEY","dist_m":3004,"zone_id":"R187511","website_link":"https://heritagedata.maps.arcgis.com/apps/webappviewer/index.html?id=0c9eb9575b544081b0d296436d8f60f8&query=18a4b61b268-layer-9%2CSMRS%2CKK023-170----","label_fr":"Enceinte — Farmley","complex":null}},{"type":"Feature","geometry":{"type":"Point","coordinates":[-7.292304,52.585118]},"properties":{"SMRS":"KK023-053001-","ENTITY_ID":"KK02288","MONUMENT_CLASS":"Church","TOWNLAND":"BURNCHURCH","dist_m":3006,"zone_id":"R189211","website_link":"https://heritagedata.maps.arcgis.com/apps/webappviewer/index.html?id=0c9eb9575b544081b0d296436d8f60f8&query=18a4b61b268-layer-9%2CSMRS%2CKK023-053001-","label_fr":"Église — Burnchurch","complex":null}},{"type":"Feature","geometry":{"type":"Point","coordinates":[-7.293038,52.584394]},"properties":{"SMRS":"KK023-054----","ENTITY_ID":"KK02291","MONUMENT_CLASS":"Ritual site - holy well","TOWNLAND":"BURNCHURCH","dist_m":3014,"zone_id":"R138937","website_link":"https://heritagedata.maps.arcgis.com/apps/webappviewer/index.html?id=0c9eb9575b544081b0d296436d8f60f8&query=18a4b61b268-layer-9%2CSMRS%2CKK023-054----","label_fr":"Puits sacré — Burnchurch","complex":null}},{"type":"Feature","geometry":{"type":"Point","coordinates":[-7.292187,52.585027]},"properties":{"SMRS":"KK023-053002-","ENTITY_ID":"KK02289","MONUMENT_CLASS":"Graveyard","TOWNLAND":"BURNCHURCH","dist_m":3018,"zone_id":"R189211","website_link":"https://heritagedata.maps.arcgis.com/apps/webappviewer/index.html?id=0c9eb9575b544081b0d296436d8f60f8&query=18a4b61b268-layer-9%2CSMRS%2CKK023-053002-","label_fr":"Cimetière — Burnchurch","complex":null}},{"type":"Feature","geometry":{"type":"Point","coordinates":[-7.368699,52.612892]},"properties":{"SMRS":"KK022-009----","ENTITY_ID":"KK02123","MONUMENT_CLASS":"Enclosure","TOWNLAND":"CURRAGH (Crannagh By.)","dist_m":3030,"zone_id":"R139080","website_link":"https://heritagedata.maps.arcgis.com/apps/webappviewer/index.html?id=0c9eb9575b544081b0d296436d8f60f8&query=18a4b61b268-layer-9%2CSMRS%2CKK022-009----","label_fr":"Enceinte — Curragh (Crannagh)","complex":null}},{"type":"Feature","geometry":{"type":"Point","coordinates":[-7.287417,52.589807]},"properties":{"SMRS":"KK023-052----","ENTITY_ID":"KK02286","MONUMENT_CLASS":"Enclosure","TOWNLAND":"BALLYBUR UPPER","dist_m":3031,"zone_id":"R138956","website_link":"https://heritagedata.maps.arcgis.com/apps/webappviewer/index.html?id=0c9eb9575b544081b0d296436d8f60f8&query=18a4b61b268-layer-9%2CSMRS%2CKK023-052----","label_fr":"Enceinte — Ballybur Upper","complex":null}},{"type":"Feature","geometry":{"type":"Point","coordinates":[-7.293104,52.583999]},"properties":{"SMRS":"KK023-053003-","ENTITY_ID":"KK02290","MONUMENT_CLASS":"Ritual site - holy well","TOWNLAND":"BURNCHURCH","dist_m":3037,"zone_id":"R138930","website_link":"https://heritagedata.maps.arcgis.com/apps/webappviewer/index.html?id=0c9eb9575b544081b0d296436d8f60f8&query=18a4b61b268-layer-9%2CSMRS%2CKK023-053003-","label_fr":"Puits sacré — Burnchurch","complex":null}},{"type":"Feature","geometry":{"type":"Point","coordinates":[-7.360945,52.620112]},"properties":{"SMRS":"KK022-010----","ENTITY_ID":"KK01712","MONUMENT_CLASS":"Enclosure","TOWNLAND":"BALLYCALLAN","dist_m":3063,"zone_id":"R139128","website_link":"https://heritagedata.maps.arcgis.com/apps/webappviewer/index.html?id=0c9eb9575b544081b0d296436d8f60f8&query=18a4b61b268-layer-9%2CSMRS%2CKK022-010----","label_fr":"Enceinte — Ballycallan","complex":null}},{"type":"Feature","geometry":{"type":"Point","coordinates":[-7.292782,52.583844]},"properties":{"SMRS":"KK023-100----","ENTITY_ID":"KK02353","MONUMENT_CLASS":"Enclosure","TOWNLAND":"BURNCHURCH","dist_m":3065,"zone_id":null,"website_link":"https://heritagedata.maps.arcgis.com/apps/webappviewer/index.html?id=0c9eb9575b544081b0d296436d8f60f8&query=18a4b61b268-layer-9%2CSMRS%2CKK023-100----","label_fr":"Enceinte — Burnchurch","complex":null}},{"type":"Feature","geometry":{"type":"Point","coordinates":[-7.325966,52.57247]},"properties":{"SMRS":"KK023-163----","ENTITY_ID":"KK05514","MONUMENT_CLASS":"Enclosure","TOWNLAND":"BALLYMACK (Desart)","dist_m":3170,"zone_id":"R182552","website_link":"https://heritagedata.maps.arcgis.com/apps/webappviewer/index.html?id=0c9eb9575b544081b0d296436d8f60f8&query=18a4b61b268-layer-9%2CSMRS%2CKK023-163----","label_fr":"Enceinte — Ballymack (Desart)","complex":null}},{"type":"Feature","geometry":{"type":"Point","coordinates":[-7.282333,52.608301]},"properties":{"SMRS":"KK023-006----","ENTITY_ID":"KK02201","MONUMENT_CLASS":"Enclosure","TOWNLAND":"RATHALEEK","dist_m":3215,"zone_id":"R139055","website_link":"https://heritagedata.maps.arcgis.com/apps/webappviewer/index.html?id=0c9eb9575b544081b0d296436d8f60f8&query=18a4b61b268-layer-9%2CSMRS%2CKK023-006----","label_fr":"Enceinte — Rathaleek","complex":null}},{"type":"Feature","geometry":{"type":"Point","coordinates":[-7.2861,52.61547]},"properties":{"SMRS":"KK023-174----","ENTITY_ID":"KK06219","MONUMENT_CLASS":"Kiln - corn-drying","TOWNLAND":"RAHEENAPISHA","dist_m":3280,"zone_id":null,"website_link":"https://heritagedata.maps.arcgis.com/apps/webappviewer/index.html?id=0c9eb9575b544081b0d296436d8f60f8&query=18a4b61b268-layer-9%2CSMRS%2CKK023-174----","label_fr":"Four à sécher le grain, daté par 14C du XIe-XIIe s., Raheenapisha","complex":null}},{"type":"Feature","geometry":{"type":"Point","coordinates":[-7.377026,52.602545]},"properties":{"SMRS":"KK022-015001-","ENTITY_ID":"KK02136","MONUMENT_CLASS":"Church","TOWNLAND":"KILBALLYKEEFE","dist_m":3290,"zone_id":"R139022","website_link":"https://heritagedata.maps.arcgis.com/apps/webappviewer/index.html?id=0c9eb9575b544081b0d296436d8f60f8&query=18a4b61b268-layer-9%2CSMRS%2CKK022-015001-","label_fr":"Église — Kilballykeefe","complex":null}},{"type":"Feature","geometry":{"type":"Point","coordinates":[-7.377115,52.602492]},"properties":{"SMRS":"KK022-015002-","ENTITY_ID":"KK02137","MONUMENT_CLASS":"Graveyard","TOWNLAND":"KILBALLYKEEFE","dist_m":3296,"zone_id":"R139022","website_link":"https://heritagedata.maps.arcgis.com/apps/webappviewer/index.html?id=0c9eb9575b544081b0d296436d8f60f8&query=18a4b61b268-layer-9%2CSMRS%2CKK022-015002-","label_fr":"Cimetière — Kilballykeefe","complex":null}},{"type":"Feature","geometry":{"type":"Point","coordinates":[-7.372542,52.613604]},"properties":{"SMRS":"KK022-008----","ENTITY_ID":"KK02122","MONUMENT_CLASS":"Cross","TOWNLAND":"CURRAGH (Crannagh By.)","dist_m":3298,"zone_id":"R139083","website_link":"https://heritagedata.maps.arcgis.com/apps/webappviewer/index.html?id=0c9eb9575b544081b0d296436d8f60f8&query=18a4b61b268-layer-9%2CSMRS%2CKK022-008----","label_fr":"Croix — Curragh (Crannagh)","complex":null}},{"type":"Feature","geometry":{"type":"Point","coordinates":[-7.377013,52.606599]},"properties":{"SMRS":"KK022-006----","ENTITY_ID":"KK02120","MONUMENT_CLASS":"Moated site","TOWNLAND":"KILBALLYKEEFE","dist_m":3344,"zone_id":"R139044","website_link":"https://heritagedata.maps.arcgis.com/apps/webappviewer/index.html?id=0c9eb9575b544081b0d296436d8f60f8&query=18a4b61b268-layer-9%2CSMRS%2CKK022-006----","label_fr":"Moated site (site à fossé) — Kilballykeefe","complex":null}},{"type":"Feature","geometry":{"type":"Point","coordinates":[-7.373889,52.613378]},"properties":{"SMRS":"KK022-007----","ENTITY_ID":"KK02121","MONUMENT_CLASS":"Inscribed stone","TOWNLAND":"BALLYCALLAN","dist_m":3370,"zone_id":"R139082","website_link":"https://heritagedata.maps.arcgis.com/apps/webappviewer/index.html?id=0c9eb9575b544081b0d296436d8f60f8&query=18a4b61b268-layer-9%2CSMRS%2CKK022-007----","label_fr":"Pierre inscrite — Ballycallan","complex":null}},{"type":"Feature","geometry":{"type":"Point","coordinates":[-7.365486,52.621647]},"properties":{"SMRS":"KK018-072004-","ENTITY_ID":"KK01711","MONUMENT_CLASS":"Graveslab","TOWNLAND":"BALLYCALLAN","dist_m":3403,"zone_id":"R139138","website_link":"https://heritagedata.maps.arcgis.com/apps/webappviewer/index.html?id=0c9eb9575b544081b0d296436d8f60f8&query=18a4b61b268-layer-9%2CSMRS%2CKK018-072004-","label_fr":"Dalle funéraire — Ballycallan","complex":null}},{"type":"Feature","geometry":{"type":"Point","coordinates":[-7.365528,52.621791]},"properties":{"SMRS":"KK018-072001-","ENTITY_ID":"KK01708","MONUMENT_CLASS":"Church","TOWNLAND":"BALLYCALLAN","dist_m":3416,"zone_id":"R139138","website_link":"https://heritagedata.maps.arcgis.com/apps/webappviewer/index.html?id=0c9eb9575b544081b0d296436d8f60f8&query=18a4b61b268-layer-9%2CSMRS%2CKK018-072001-","label_fr":"Église — Ballycallan","complex":null}},{"type":"Feature","geometry":{"type":"Point","coordinates":[-7.365573,52.621773]},"properties":{"SMRS":"KK018-072003-","ENTITY_ID":"KK01710","MONUMENT_CLASS":"Cross","TOWNLAND":"BALLYCALLAN","dist_m":3417,"zone_id":"R139138","website_link":"https://heritagedata.maps.arcgis.com/apps/webappviewer/index.html?id=0c9eb9575b544081b0d296436d8f60f8&query=18a4b61b268-layer-9%2CSMRS%2CKK018-072003-","label_fr":"Croix — Ballycallan","complex":null}},{"type":"Feature","geometry":{"type":"Point","coordinates":[-7.365439,52.621862]},"properties":{"SMRS":"KK018-072006-","ENTITY_ID":"KK05990","MONUMENT_CLASS":"Graveslab","TOWNLAND":"BALLYCALLAN","dist_m":3417,"zone_id":"R139138","website_link":"https://heritagedata.maps.arcgis.com/apps/webappviewer/index.html?id=0c9eb9575b544081b0d296436d8f60f8&query=18a4b61b268-layer-9%2CSMRS%2CKK018-072006-","label_fr":"Dalle funéraire — Ballycallan","complex":null}},{"type":"Feature","geometry":{"type":"Point","coordinates":[-7.365558,52.621809]},"properties":{"SMRS":"KK018-072007-","ENTITY_ID":"KK05991","MONUMENT_CLASS":"Graveslab","TOWNLAND":"BALLYCALLAN","dist_m":3419,"zone_id":"R139138","website_link":"https://heritagedata.maps.arcgis.com/apps/webappviewer/index.html?id=0c9eb9575b544081b0d296436d8f60f8&query=18a4b61b268-layer-9%2CSMRS%2CKK018-072007-","label_fr":"Dalle funéraire — Ballycallan","complex":null}},{"type":"Feature","geometry":{"type":"Point","coordinates":[-7.365587,52.6218]},"properties":{"SMRS":"KK018-072002-","ENTITY_ID":"KK01709","MONUMENT_CLASS":"Graveyard","TOWNLAND":"BALLYCALLAN","dist_m":3419,"zone_id":"R139138","website_link":"https://heritagedata.maps.arcgis.com/apps/webappviewer/index.html?id=0c9eb9575b544081b0d296436d8f60f8&query=18a4b61b268-layer-9%2CSMRS%2CKK018-072002-","label_fr":"Cimetière — Ballycallan","complex":null}},{"type":"Feature","geometry":{"type":"Point","coordinates":[-7.365661,52.621819]},"properties":{"SMRS":"KK018-072005-","ENTITY_ID":"KK05989","MONUMENT_CLASS":"Graveslab","TOWNLAND":"BALLYCALLAN","dist_m":3424,"zone_id":"R139138","website_link":"https://heritagedata.maps.arcgis.com/apps/webappviewer/index.html?id=0c9eb9575b544081b0d296436d8f60f8&query=18a4b61b268-layer-9%2CSMRS%2CKK018-072005-","label_fr":"Dalle funéraire — Ballycallan","complex":null}},{"type":"Feature","geometry":{"type":"Point","coordinates":[-7.283995,52.615933]},"properties":{"SMRS":"KK023-005----","ENTITY_ID":"KK02200","MONUMENT_CLASS":"Enclosure","TOWNLAND":"RAHEENAPISHA","dist_m":3429,"zone_id":"R139098","website_link":"https://heritagedata.maps.arcgis.com/apps/webappviewer/index.html?id=0c9eb9575b544081b0d296436d8f60f8&query=18a4b61b268-layer-9%2CSMRS%2CKK023-005----","label_fr":"Enceinte — Raheenapisha","complex":null}},{"type":"Feature","geometry":{"type":"Point","coordinates":[-7.297392,52.576061]},"properties":{"SMRS":"KK023-071003-","ENTITY_ID":"KK02314","MONUMENT_CLASS":"Bawn","TOWNLAND":"FARMLEY","dist_m":3469,"zone_id":"R138900","website_link":"https://heritagedata.maps.arcgis.com/apps/webappviewer/index.html?id=0c9eb9575b544081b0d296436d8f60f8&query=18a4b61b268-layer-9%2CSMRS%2CKK023-071003-","label_fr":"Bawn de Farmley (tourelle circulaire subsistante)","complex":null}},{"type":"Feature","geometry":{"type":"Point","coordinates":[-7.297482,52.575962]},"properties":{"SMRS":"KK023-071001-","ENTITY_ID":"KK02312","MONUMENT_CLASS":"Castle - tower house","TOWNLAND":"FARMLEY","dist_m":3474,"zone_id":"R138900","website_link":"https://heritagedata.maps.arcgis.com/apps/webappviewer/index.html?id=0c9eb9575b544081b0d296436d8f60f8&query=18a4b61b268-layer-9%2CSMRS%2CKK023-071001-","label_fr":"Tower house de Farmley (barons de Burnchurch, Fitzgerald)","complex":null}},{"type":"Feature","geometry":{"type":"Point","coordinates":[-7.280818,52.589021]},"properties":{"SMRS":"KK023-135----","ENTITY_ID":"KK05239","MONUMENT_CLASS":"Enclosure","TOWNLAND":"OLDTOWN (Shillelogher By.)","dist_m":3475,"zone_id":"R180563","website_link":"https://heritagedata.maps.arcgis.com/apps/webappviewer/index.html?id=0c9eb9575b544081b0d296436d8f60f8&query=18a4b61b268-layer-9%2CSMRS%2CKK023-135----","label_fr":"Enceinte — Oldtown (Shillelogher)","complex":null}},{"type":"Feature","geometry":{"type":"Point","coordinates":[-7.280282,52.589297]},"properties":{"SMRS":"KK023-136----","ENTITY_ID":"KK05240","MONUMENT_CLASS":"Field system","TOWNLAND":"OLDTOWN (Shillelogher By.)","dist_m":3497,"zone_id":"R180563","website_link":"https://heritagedata.maps.arcgis.com/apps/webappviewer/index.html?id=0c9eb9575b544081b0d296436d8f60f8&query=18a4b61b268-layer-9%2CSMRS%2CKK023-136----","label_fr":"Parcellaire ancien — Oldtown (Shillelogher)","complex":null}},{"type":"Feature","geometry":{"type":"Point","coordinates":[-7.297532,52.575594]},"properties":{"SMRS":"KK023-072011-","ENTITY_ID":"KK06420","MONUMENT_CLASS":"Tomb - chest tomb","TOWNLAND":"BURNCHURCH","dist_m":3505,"zone_id":"R138900","website_link":"https://heritagedata.maps.arcgis.com/apps/webappviewer/index.html?id=0c9eb9575b544081b0d296436d8f60f8&query=18a4b61b268-layer-9%2CSMRS%2CKK023-072011-","label_fr":"Tombeau-coffre — Burnchurch","complex":null}},{"type":"Feature","geometry":{"type":"Point","coordinates":[-7.297652,52.575505]},"properties":{"SMRS":"KK023-072007-","ENTITY_ID":"KK06047","MONUMENT_CLASS":"Graveslab","TOWNLAND":"BURNCHURCH","dist_m":3508,"zone_id":"R138900","website_link":"https://heritagedata.maps.arcgis.com/apps/webappviewer/index.html?id=0c9eb9575b544081b0d296436d8f60f8&query=18a4b61b268-layer-9%2CSMRS%2CKK023-072007-","label_fr":"Dalle funéraire — Burnchurch","complex":null}},{"type":"Feature","geometry":{"type":"Point","coordinates":[-7.297444,52.575558]},"properties":{"SMRS":"KK023-072005-","ENTITY_ID":"KK05301","MONUMENT_CLASS":"Tomb - chest tomb","TOWNLAND":"BURNCHURCH","dist_m":3512,"zone_id":"R138900","website_link":"https://heritagedata.maps.arcgis.com/apps/webappviewer/index.html?id=0c9eb9575b544081b0d296436d8f60f8&query=18a4b61b268-layer-9%2CSMRS%2CKK023-072005-","label_fr":"Tombeau-coffre — Burnchurch","complex":null}},{"type":"Feature","geometry":{"type":"Point","coordinates":[-7.285819,52.619108]},"properties":{"SMRS":"KK023-004----","ENTITY_ID":"KK02199","MONUMENT_CLASS":"Enclosure","TOWNLAND":"PARKMORE","dist_m":3513,"zone_id":"R139126","website_link":"https://heritagedata.maps.arcgis.com/apps/webappviewer/index.html?id=0c9eb9575b544081b0d296436d8f60f8&query=18a4b61b268-layer-9%2CSMRS%2CKK023-004----","label_fr":"Enceinte — Parkmore","complex":null}},{"type":"Feature","geometry":{"type":"Point","coordinates":[-7.297282,52.575584]},"properties":{"SMRS":"KK023-072012-","ENTITY_ID":"KK06421","MONUMENT_CLASS":"Wall monument","TOWNLAND":"BURNCHURCH","dist_m":3516,"zone_id":"R138900","website_link":"https://heritagedata.maps.arcgis.com/apps/webappviewer/index.html?id=0c9eb9575b544081b0d296436d8f60f8&query=18a4b61b268-layer-9%2CSMRS%2CKK023-072012-","label_fr":"Monument mural — Burnchurch","complex":null}},{"type":"Feature","geometry":{"type":"Point","coordinates":[-7.297282,52.575575]},"properties":{"SMRS":"KK023-072008-","ENTITY_ID":"KK06417","MONUMENT_CLASS":"Tomb - chest tomb","TOWNLAND":"BURNCHURCH","dist_m":3517,"zone_id":"R138900","website_link":"https://heritagedata.maps.arcgis.com/apps/webappviewer/index.html?id=0c9eb9575b544081b0d296436d8f60f8&query=18a4b61b268-layer-9%2CSMRS%2CKK023-072008-","label_fr":"Tombeau-coffre — Burnchurch","complex":null}},{"type":"Feature","geometry":{"type":"Point","coordinates":[-7.297193,52.575565]},"properties":{"SMRS":"KK023-072010-","ENTITY_ID":"KK06419","MONUMENT_CLASS":"Graveslab","TOWNLAND":"BURNCHURCH","dist_m":3521,"zone_id":"R138900","website_link":"https://heritagedata.maps.arcgis.com/apps/webappviewer/index.html?id=0c9eb9575b544081b0d296436d8f60f8&query=18a4b61b268-layer-9%2CSMRS%2CKK023-072010-","label_fr":"Dalle funéraire — Burnchurch","complex":null}},{"type":"Feature","geometry":{"type":"Point","coordinates":[-7.297194,52.575556]},"properties":{"SMRS":"KK023-072009-","ENTITY_ID":"KK06418","MONUMENT_CLASS":"Graveslab","TOWNLAND":"BURNCHURCH","dist_m":3522,"zone_id":"R138900","website_link":"https://heritagedata.maps.arcgis.com/apps/webappviewer/index.html?id=0c9eb9575b544081b0d296436d8f60f8&query=18a4b61b268-layer-9%2CSMRS%2CKK023-072009-","label_fr":"Dalle funéraire — Burnchurch","complex":null}},{"type":"Feature","geometry":{"type":"Point","coordinates":[-7.297194,52.575547]},"properties":{"SMRS":"KK023-072004-","ENTITY_ID":"KK05300","MONUMENT_CLASS":"Graveslab","TOWNLAND":"BURNCHURCH","dist_m":3523,"zone_id":"R138900","website_link":"https://heritagedata.maps.arcgis.com/apps/webappviewer/index.html?id=0c9eb9575b544081b0d296436d8f60f8&query=18a4b61b268-layer-9%2CSMRS%2CKK023-072004-","label_fr":"Dalle funéraire — Burnchurch","complex":null}},{"type":"Feature","geometry":{"type":"Point","coordinates":[-7.297194,52.575529]},"properties":{"SMRS":"KK023-072003-","ENTITY_ID":"KK02318","MONUMENT_CLASS":"Graveslab","TOWNLAND":"BURNCHURCH","dist_m":3524,"zone_id":"R138900","website_link":"https://heritagedata.maps.arcgis.com/apps/webappviewer/index.html?id=0c9eb9575b544081b0d296436d8f60f8&query=18a4b61b268-layer-9%2CSMRS%2CKK023-072003-","label_fr":"Dalle funéraire — Burnchurch","complex":null}},{"type":"Feature","geometry":{"type":"Point","coordinates":[-7.297239,52.575467]},"properties":{"SMRS":"KK023-072001-","ENTITY_ID":"KK02316","MONUMENT_CLASS":"Church","TOWNLAND":"BURNCHURCH","dist_m":3528,"zone_id":"R138900","website_link":"https://heritagedata.maps.arcgis.com/apps/webappviewer/index.html?id=0c9eb9575b544081b0d296436d8f60f8&query=18a4b61b268-layer-9%2CSMRS%2CKK023-072001-","label_fr":"Église — Burnchurch","complex":null}},{"type":"Feature","geometry":{"type":"Point","coordinates":[-7.297239,52.575467]},"properties":{"SMRS":"KK023-072002-","ENTITY_ID":"KK02317","MONUMENT_CLASS":"Graveyard","TOWNLAND":"BURNCHURCH","dist_m":3528,"zone_id":"R138900","website_link":"https://heritagedata.maps.arcgis.com/apps/webappviewer/index.html?id=0c9eb9575b544081b0d296436d8f60f8&query=18a4b61b268-layer-9%2CSMRS%2CKK023-072002-","label_fr":"Cimetière — Burnchurch","complex":null}},{"type":"Feature","geometry":{"type":"Point","coordinates":[-7.297137,52.575403]},"properties":{"SMRS":"KK023-072006-","ENTITY_ID":"KK06046","MONUMENT_CLASS":"Graveslab","TOWNLAND":"BURNCHURCH","dist_m":3538,"zone_id":"R138900","website_link":"https://heritagedata.maps.arcgis.com/apps/webappviewer/index.html?id=0c9eb9575b544081b0d296436d8f60f8&query=18a4b61b268-layer-9%2CSMRS%2CKK023-072006-","label_fr":"Dalle funéraire — Burnchurch","complex":null}},{"type":"Feature","geometry":{"type":"Point","coordinates":[-7.298857,52.627581]},"properties":{"SMRS":"KK019-108----","ENTITY_ID":"KK04930","MONUMENT_CLASS":"Fulacht fia","TOWNLAND":"CASTLEINCH OR INCHYOLAGHAN","dist_m":3570,"zone_id":"R188319","website_link":"https://heritagedata.maps.arcgis.com/apps/webappviewer/index.html?id=0c9eb9575b544081b0d296436d8f60f8&query=18a4b61b268-layer-9%2CSMRS%2CKK019-108----","label_fr":"Fulacht fia (foyer culinaire) — Castleinch/Inchyolaghan","complex":null}},{"type":"Feature","geometry":{"type":"Point","coordinates":[-7.352176,52.571825]},"properties":{"SMRS":"KK022-025----","ENTITY_ID":"KK02158","MONUMENT_CLASS":"Enclosure","TOWNLAND":"TULLAMAINE (Ashbrook)","dist_m":3615,"zone_id":"R138877","website_link":"https://heritagedata.maps.arcgis.com/apps/webappviewer/index.html?id=0c9eb9575b544081b0d296436d8f60f8&query=18a4b61b268-layer-9%2CSMRS%2CKK022-025----","label_fr":"Enceinte — Tullamaine (Ashbrook)","complex":null}},{"type":"Feature","geometry":{"type":"Point","coordinates":[-7.369782,52.621778]},"properties":{"SMRS":"KK018-099----","ENTITY_ID":"KK01757","MONUMENT_CLASS":"Architectural fragment","TOWNLAND":"BALLYCALLAN","dist_m":3631,"zone_id":"R139137","website_link":"https://heritagedata.maps.arcgis.com/apps/webappviewer/index.html?id=0c9eb9575b544081b0d296436d8f60f8&query=18a4b61b268-layer-9%2CSMRS%2CKK018-099----","label_fr":"Fragment architectural — Ballycallan","complex":null}},{"type":"Feature","geometry":{"type":"Point","coordinates":[-7.27842,52.588557]},"properties":{"SMRS":"KK023-134----","ENTITY_ID":"KK05238","MONUMENT_CLASS":"Field system","TOWNLAND":"OLDTOWN (Shillelogher By.)","dist_m":3645,"zone_id":"R180564","website_link":"https://heritagedata.maps.arcgis.com/apps/webappviewer/index.html?id=0c9eb9575b544081b0d296436d8f60f8&query=18a4b61b268-layer-9%2CSMRS%2CKK023-134----","label_fr":"Parcellaire ancien — Oldtown (Shillelogher)","complex":null}},{"type":"Feature","geometry":{"type":"Point","coordinates":[-7.277879,52.588284]},"properties":{"SMRS":"KK023-133----","ENTITY_ID":"KK05237","MONUMENT_CLASS":"Enclosure","TOWNLAND":"OLDTOWN (Shillelogher By.)","dist_m":3690,"zone_id":"R180564","website_link":"https://heritagedata.maps.arcgis.com/apps/webappviewer/index.html?id=0c9eb9575b544081b0d296436d8f60f8&query=18a4b61b268-layer-9%2CSMRS%2CKK023-133----","label_fr":"Enceinte — Oldtown (Shillelogher)","complex":null}},{"type":"Feature","geometry":{"type":"Point","coordinates":[-7.28134,52.583254]},"properties":{"SMRS":"KK023-055----","ENTITY_ID":"KK02292","MONUMENT_CLASS":"Enclosure","TOWNLAND":"OLDTOWN (Shillelogher By.)","dist_m":3737,"zone_id":"R138924","website_link":"https://heritagedata.maps.arcgis.com/apps/webappviewer/index.html?id=0c9eb9575b544081b0d296436d8f60f8&query=18a4b61b268-layer-9%2CSMRS%2CKK023-055----","label_fr":"Enceinte — Oldtown (Shillelogher)","complex":null}},{"type":"Feature","geometry":{"type":"Point","coordinates":[-7.32909,52.566933]},"properties":{"SMRS":"KK023-068----","ENTITY_ID":"KK02309","MONUMENT_CLASS":"Enclosure","TOWNLAND":"BALLYMACK (Desart)","dist_m":3782,"zone_id":"R138851","website_link":"https://heritagedata.maps.arcgis.com/apps/webappviewer/index.html?id=0c9eb9575b544081b0d296436d8f60f8&query=18a4b61b268-layer-9%2CSMRS%2CKK023-068----","label_fr":"Enceinte — Ballymack (Desart)","complex":null}},{"type":"Feature","geometry":{"type":"Point","coordinates":[-7.300704,52.571002]},"properties":{"SMRS":"KK023-070----","ENTITY_ID":"KK02311","MONUMENT_CLASS":"Enclosure","TOWNLAND":"COALSFARM","dist_m":3818,"zone_id":"R138872","website_link":"https://heritagedata.maps.arcgis.com/apps/webappviewer/index.html?id=0c9eb9575b544081b0d296436d8f60f8&query=18a4b61b268-layer-9%2CSMRS%2CKK023-070----","label_fr":"Enceinte — Coalsfarm","complex":null}},{"type":"Feature","geometry":{"type":"Point","coordinates":[-7.339116,52.567169]},"properties":{"SMRS":"KK023-172----","ENTITY_ID":"KK05986","MONUMENT_CLASS":"Enclosure","TOWNLAND":"BALLYMACK (Desart),NEWTOWN (Baker)","dist_m":3825,"zone_id":"R188524","website_link":"https://heritagedata.maps.arcgis.com/apps/webappviewer/index.html?id=0c9eb9575b544081b0d296436d8f60f8&query=18a4b61b268-layer-9%2CSMRS%2CKK023-172----","label_fr":"Enceinte — Ballymack/Newtown (Desart-Baker)","complex":null}},{"type":"Feature","geometry":{"type":"Point","coordinates":[-7.27563,52.613653]},"properties":{"SMRS":"KK023-007----","ENTITY_ID":"KK02202","MONUMENT_CLASS":"Moated site","TOWNLAND":"RAHEENAPISHA","dist_m":3832,"zone_id":"R139085","website_link":"https://heritagedata.maps.arcgis.com/apps/webappviewer/index.html?id=0c9eb9575b544081b0d296436d8f60f8&query=18a4b61b268-layer-9%2CSMRS%2CKK023-007----","label_fr":"Moated site (site à fossé) — Raheenapisha","complex":null}},{"type":"Feature","geometry":{"type":"Point","coordinates":[-7.341438,52.634683]},"properties":{"SMRS":"KK019-125----","ENTITY_ID":"KK05164","MONUMENT_CLASS":"House - 17th century","TOWNLAND":"DAMMA UPPER","dist_m":3854,"zone_id":"R139195","website_link":"https://heritagedata.maps.arcgis.com/apps/webappviewer/index.html?id=0c9eb9575b544081b0d296436d8f60f8&query=18a4b61b268-layer-9%2CSMRS%2CKK019-125----","label_fr":"Maison XVIIe s. de Damma (famille Smyth)","complex":null}},{"type":"Feature","geometry":{"type":"Point","coordinates":[-7.274148,52.614885]},"properties":{"SMRS":"KK023-180----","ENTITY_ID":"KK06423","MONUMENT_CLASS":"Enclosure","TOWNLAND":"RAHEENAPISHA","dist_m":3977,"zone_id":"R187730","website_link":"https://heritagedata.maps.arcgis.com/apps/webappviewer/index.html?id=0c9eb9575b544081b0d296436d8f60f8&query=18a4b61b268-layer-9%2CSMRS%2CKK023-180----","label_fr":"Enceinte — Raheenapisha","complex":null}},{"type":"Feature","geometry":{"type":"Point","coordinates":[-7.385158,52.611118]},"properties":{"SMRS":"KK022-057----","ENTITY_ID":"KK06292","MONUMENT_CLASS":"Enclosure - large enclosure","TOWNLAND":"BALLYKEEFE HILL","dist_m":3998,"zone_id":"R187509","website_link":"https://heritagedata.maps.arcgis.com/apps/webappviewer/index.html?id=0c9eb9575b544081b0d296436d8f60f8&query=18a4b61b268-layer-9%2CSMRS%2CKK022-057----","label_fr":"Grande enceinte — Ballykeefe Hill","complex":null}},{"type":"Feature","geometry":{"type":"Point","coordinates":[-7.38633,52.610737]},"properties":{"SMRS":"KK022-056----","ENTITY_ID":"KK05838","MONUMENT_CLASS":"Enclosure","TOWNLAND":"BALLYKEEFE HILL","dist_m":4062,"zone_id":"R187509","website_link":"https://heritagedata.maps.arcgis.com/apps/webappviewer/index.html?id=0c9eb9575b544081b0d296436d8f60f8&query=18a4b61b268-layer-9%2CSMRS%2CKK022-056----","label_fr":"Enceinte — Ballykeefe Hill","complex":null}},{"type":"Feature","geometry":{"type":"Point","coordinates":[-7.388813,52.599928]},"properties":{"SMRS":"KK022-013001-","ENTITY_ID":"KK02130","MONUMENT_CLASS":"Castle - unclassified","TOWNLAND":"BALLYKEEFECASTLE","dist_m":4083,"zone_id":"R139002","website_link":"https://heritagedata.maps.arcgis.com/apps/webappviewer/index.html?id=0c9eb9575b544081b0d296436d8f60f8&query=18a4b61b268-layer-9%2CSMRS%2CKK022-013001-","label_fr":"Château disparu de Ballykeefecastle (Shortall)","complex":null}},{"type":"Feature","geometry":{"type":"Point","coordinates":[-7.388813,52.599928]},"properties":{"SMRS":"KK022-013005-","ENTITY_ID":"KK06001","MONUMENT_CLASS":"Bawn","TOWNLAND":"BALLYKEEFECASTLE","dist_m":4083,"zone_id":"R139002","website_link":"https://heritagedata.maps.arcgis.com/apps/webappviewer/index.html?id=0c9eb9575b544081b0d296436d8f60f8&query=18a4b61b268-layer-9%2CSMRS%2CKK022-013005-","label_fr":"Bawn de Ballykeefecastle (tourelle de flanquement subsistante)","complex":null}},{"type":"Feature","geometry":{"type":"Point","coordinates":[-7.269568,52.609679]},"properties":{"SMRS":"KK023-008----","ENTITY_ID":"KK02203","MONUMENT_CLASS":"Standing stone","TOWNLAND":"KNOCKLEGAN","dist_m":4089,"zone_id":"R139062","website_link":"https://heritagedata.maps.arcgis.com/apps/webappviewer/index.html?id=0c9eb9575b544081b0d296436d8f60f8&query=18a4b61b268-layer-9%2CSMRS%2CKK023-008----","label_fr":"Pierre dressée (liagán) de Knocklegan","complex":null}},{"type":"Feature","geometry":{"type":"Point","coordinates":[-7.313103,52.564864]},"properties":{"SMRS":"KK023-069----","ENTITY_ID":"KK02310","MONUMENT_CLASS":"Enclosure","TOWNLAND":"OVENSTOWN","dist_m":4142,"zone_id":"R138832","website_link":"https://heritagedata.maps.arcgis.com/apps/webappviewer/index.html?id=0c9eb9575b544081b0d296436d8f60f8&query=18a4b61b268-layer-9%2CSMRS%2CKK023-069----","label_fr":"Enceinte — Ovenstown","complex":null}},{"type":"Feature","geometry":{"type":"Point","coordinates":[-7.340973,52.564339]},"properties":{"SMRS":"KK023-067----","ENTITY_ID":"KK02308","MONUMENT_CLASS":"Enclosure","TOWNLAND":"NEWTOWN (Baker)","dist_m":4158,"zone_id":"R138825","website_link":"https://heritagedata.maps.arcgis.com/apps/webappviewer/index.html?id=0c9eb9575b544081b0d296436d8f60f8&query=18a4b61b268-layer-9%2CSMRS%2CKK023-067----","label_fr":"Enceinte — Newtown (Baker)","complex":null}},{"type":"Feature","geometry":{"type":"Point","coordinates":[-7.266737,52.601518]},"properties":{"SMRS":"KK023-041----","ENTITY_ID":"KK02262","MONUMENT_CLASS":"Midden","TOWNLAND":"KILMOG OR RACECOURSE","dist_m":4163,"zone_id":"R139021","website_link":"https://heritagedata.maps.arcgis.com/apps/webappviewer/index.html?id=0c9eb9575b544081b0d296436d8f60f8&query=18a4b61b268-layer-9%2CSMRS%2CKK023-041----","label_fr":"Amas coquillier (huîtres), pipeline gazier Cork-Dublin","complex":null}},{"type":"Feature","geometry":{"type":"Point","coordinates":[-7.389336,52.5931]},"properties":{"SMRS":"KK022-014----","ENTITY_ID":"KK02134","MONUMENT_CLASS":"Enclosure","TOWNLAND":"BALLYKEEFE BOG","dist_m":4209,"zone_id":"R138968","website_link":"https://heritagedata.maps.arcgis.com/apps/webappviewer/index.html?id=0c9eb9575b544081b0d296436d8f60f8&query=18a4b61b268-layer-9%2CSMRS%2CKK022-014----","label_fr":"Enceinte — Ballykeefe Bog","complex":null}},{"type":"Feature","geometry":{"type":"Point","coordinates":[-7.266552,52.606407]},"properties":{"SMRS":"KK023-010----","ENTITY_ID":"KK02210","MONUMENT_CLASS":"Enclosure","TOWNLAND":"KILMOG OR RACECOURSE","dist_m":4219,"zone_id":"R139047","website_link":"https://heritagedata.maps.arcgis.com/apps/webappviewer/index.html?id=0c9eb9575b544081b0d296436d8f60f8&query=18a4b61b268-layer-9%2CSMRS%2CKK023-010----","label_fr":"Enceinte — Kilmog/Racecourse","complex":null}},{"type":"Feature","geometry":{"type":"Point","coordinates":[-7.372094,52.62845]},"properties":{"SMRS":"KK018-071----","ENTITY_ID":"KK01706","MONUMENT_CLASS":"Ringfort - rath","TOWNLAND":"GORTEENTEEN","dist_m":4251,"zone_id":"R139174","website_link":"https://heritagedata.maps.arcgis.com/apps/webappviewer/index.html?id=0c9eb9575b544081b0d296436d8f60f8&query=18a4b61b268-layer-9%2CSMRS%2CKK018-071----","label_fr":"Ringfort de Gorteenteen (entrée à chaussée)","complex":null}},{"type":"Feature","geometry":{"type":"Point","coordinates":[-7.302608,52.635953]},"properties":{"SMRS":"KK019-107----","ENTITY_ID":"KK04929","MONUMENT_CLASS":"Pit-burial","TOWNLAND":"CASTLEBLUNDEN","dist_m":4264,"zone_id":"R188316","website_link":"https://heritagedata.maps.arcgis.com/apps/webappviewer/index.html?id=0c9eb9575b544081b0d296436d8f60f8&query=18a4b61b268-layer-9%2CSMRS%2CKK019-107----","label_fr":"Sépulture à crémation en fosse, pipeline Cork-Dublin (1999)","complex":null}},{"type":"Feature","geometry":{"type":"Point","coordinates":[-7.355273,52.565874]},"properties":{"SMRS":"KK022-027001-","ENTITY_ID":"KK02161","MONUMENT_CLASS":"Church","TOWNLAND":"TULLAMAINE (Ashbrook)","dist_m":4302,"zone_id":"R138845","website_link":"https://heritagedata.maps.arcgis.com/apps/webappviewer/index.html?id=0c9eb9575b544081b0d296436d8f60f8&query=18a4b61b268-layer-9%2CSMRS%2CKK022-027001-","label_fr":"Église — Tullamaine (Ashbrook)","complex":null}},{"type":"Feature","geometry":{"type":"Point","coordinates":[-7.355273,52.565874]},"properties":{"SMRS":"KK022-027002-","ENTITY_ID":"KK02162","MONUMENT_CLASS":"Graveyard","TOWNLAND":"TULLAMAINE (Ashbrook)","dist_m":4302,"zone_id":"R138845","website_link":"https://heritagedata.maps.arcgis.com/apps/webappviewer/index.html?id=0c9eb9575b544081b0d296436d8f60f8&query=18a4b61b268-layer-9%2CSMRS%2CKK022-027002-","label_fr":"Cimetière — Tullamaine (Ashbrook)","complex":null}},{"type":"Feature","geometry":{"type":"Point","coordinates":[-7.265644,52.60863]},"properties":{"SMRS":"KK023-009004-","ENTITY_ID":"KK02208","MONUMENT_CLASS":"Graveyard","TOWNLAND":"KILMOG OR RACECOURSE","dist_m":4322,"zone_id":"R139058","website_link":"https://heritagedata.maps.arcgis.com/apps/webappviewer/index.html?id=0c9eb9575b544081b0d296436d8f60f8&query=18a4b61b268-layer-9%2CSMRS%2CKK023-009004-","label_fr":"Cimetière — Kilmog/Racecourse","complex":null}},{"type":"Feature","geometry":{"type":"Point","coordinates":[-7.265644,52.60863]},"properties":{"SMRS":"KK023-009001-","ENTITY_ID":"KK02205","MONUMENT_CLASS":"Bullaun stone","TOWNLAND":"KILMOG OR RACECOURSE","dist_m":4322,"zone_id":"R139058","website_link":"https://heritagedata.maps.arcgis.com/apps/webappviewer/index.html?id=0c9eb9575b544081b0d296436d8f60f8&query=18a4b61b268-layer-9%2CSMRS%2CKK023-009001-","label_fr":"Bullaun \"Glúin Phádraig\", légende de Fionn Mac Cumhaill et saint Patrick","complex":null}},{"type":"Feature","geometry":{"type":"Point","coordinates":[-7.265644,52.60863]},"properties":{"SMRS":"KK023-009002-","ENTITY_ID":"KK02206","MONUMENT_CLASS":"Ritual site - holy tree/bush","TOWNLAND":"KILMOG OR RACECOURSE","dist_m":4322,"zone_id":"R139058","website_link":"https://heritagedata.maps.arcgis.com/apps/webappviewer/index.html?id=0c9eb9575b544081b0d296436d8f60f8&query=18a4b61b268-layer-9%2CSMRS%2CKK023-009002-","label_fr":"\"Patrick's Bush\", arbre à ex-voto, Kilmog","complex":null}},{"type":"Feature","geometry":{"type":"Point","coordinates":[-7.265644,52.60863]},"properties":{"SMRS":"KK023-009003-","ENTITY_ID":"KK02207","MONUMENT_CLASS":"Church","TOWNLAND":"KILMOG OR RACECOURSE","dist_m":4322,"zone_id":"R139058","website_link":"https://heritagedata.maps.arcgis.com/apps/webappviewer/index.html?id=0c9eb9575b544081b0d296436d8f60f8&query=18a4b61b268-layer-9%2CSMRS%2CKK023-009003-","label_fr":"Église disparue de Kilmog (St Magadh)","complex":null}},{"type":"Feature","geometry":{"type":"Point","coordinates":[-7.355455,52.565542]},"properties":{"SMRS":"KK022-027005-","ENTITY_ID":"KK02165","MONUMENT_CLASS":"Settlement cluster","TOWNLAND":"TULLAMAINE (Ashbrook)","dist_m":4340,"zone_id":"R138845","website_link":"https://heritagedata.maps.arcgis.com/apps/webappviewer/index.html?id=0c9eb9575b544081b0d296436d8f60f8&query=18a4b61b268-layer-9%2CSMRS%2CKK022-027005-","label_fr":"Groupement d'habitat — Tullamaine (Ashbrook)","complex":null}},{"type":"Feature","geometry":{"type":"Point","coordinates":[-7.391879,52.59278]},"properties":{"SMRS":"KK022-059----","ENTITY_ID":"KK06406","MONUMENT_CLASS":"Architectural fragment","TOWNLAND":"BALLYKEEFE BOG","dist_m":4384,"zone_id":"R187654","website_link":"https://heritagedata.maps.arcgis.com/apps/webappviewer/index.html?id=0c9eb9575b544081b0d296436d8f60f8&query=18a4b61b268-layer-9%2CSMRS%2CKK022-059----","label_fr":"Fragment architectural — Ballykeefe Bog","complex":null}},{"type":"Feature","geometry":{"type":"Point","coordinates":[-7.272804,52.622013]},"properties":{"SMRS":"KK019-039001-","ENTITY_ID":"KK01828","MONUMENT_CLASS":"Castle - tower house","TOWNLAND":"GOSLINGSTOWN","dist_m":4424,"zone_id":"R139144","website_link":"https://heritagedata.maps.arcgis.com/apps/webappviewer/index.html?id=0c9eb9575b544081b0d296436d8f60f8&query=18a4b61b268-layer-9%2CSMRS%2CKK019-039001-","label_fr":"Tower house de Goslingstown (\"Castle Bamford\", Wall puis Comerford)","complex":null}},{"type":"Feature","geometry":{"type":"Point","coordinates":[-7.272804,52.622013]},"properties":{"SMRS":"KK019-039003-","ENTITY_ID":"KK01830","MONUMENT_CLASS":"House - 16th/17th century","TOWNLAND":"GOSLINGSTOWN","dist_m":4424,"zone_id":"R139144","website_link":"https://heritagedata.maps.arcgis.com/apps/webappviewer/index.html?id=0c9eb9575b544081b0d296436d8f60f8&query=18a4b61b268-layer-9%2CSMRS%2CKK019-039003-","label_fr":"Maison XVIe/XVIIe s. attenante à Castle Bamford, Goslingstown","complex":null}},{"type":"Feature","geometry":{"type":"Point","coordinates":[-7.261684,52.604381]},"properties":{"SMRS":"KK023-011----","ENTITY_ID":"KK02211","MONUMENT_CLASS":"Enclosure","TOWNLAND":"BODALMORE","dist_m":4520,"zone_id":"R139034","website_link":"https://heritagedata.maps.arcgis.com/apps/webappviewer/index.html?id=0c9eb9575b544081b0d296436d8f60f8&query=18a4b61b268-layer-9%2CSMRS%2CKK023-011----","label_fr":"Enceinte — Bodalmore","complex":null}},{"type":"Feature","geometry":{"type":"Point","coordinates":[-7.356814,52.563365]},"properties":{"SMRS":"KK022-027004-","ENTITY_ID":"KK02164","MONUMENT_CLASS":"Ritual site - holy well","TOWNLAND":"TULLAMAINE (Ashbrook)","dist_m":4599,"zone_id":"R138816","website_link":"https://heritagedata.maps.arcgis.com/apps/webappviewer/index.html?id=0c9eb9575b544081b0d296436d8f60f8&query=18a4b61b268-layer-9%2CSMRS%2CKK022-027004-","label_fr":"Puits sacré — Tullamaine (Ashbrook)","complex":null}},{"type":"Feature","geometry":{"type":"Point","coordinates":[-7.297114,52.637709]},"properties":{"SMRS":"KK019-032002-","ENTITY_ID":"KK01819","MONUMENT_CLASS":"Bawn","TOWNLAND":"CASTLEBLUNDEN","dist_m":4601,"zone_id":"R139203","website_link":"https://heritagedata.maps.arcgis.com/apps/webappviewer/index.html?id=0c9eb9575b544081b0d296436d8f60f8&query=18a4b61b268-layer-9%2CSMRS%2CKK019-032002-","label_fr":"Bawn/moated enclosure de Castleblunden","complex":null}},{"type":"Feature","geometry":{"type":"Point","coordinates":[-7.297099,52.637736]},"properties":{"SMRS":"KK019-032001-","ENTITY_ID":"KK01818","MONUMENT_CLASS":"Castle - unclassified","TOWNLAND":"CASTLEBLUNDEN","dist_m":4604,"zone_id":"R139203","website_link":"https://heritagedata.maps.arcgis.com/apps/webappviewer/index.html?id=0c9eb9575b544081b0d296436d8f60f8&query=18a4b61b268-layer-9%2CSMRS%2CKK019-032001-","label_fr":"Château disparu de Castleblunden (Shee)","complex":null}},{"type":"Feature","geometry":{"type":"Point","coordinates":[-7.266108,52.583475]},"properties":{"SMRS":"KK023-056----","ENTITY_ID":"KK02293","MONUMENT_CLASS":"Enclosure","TOWNLAND":"NEWLANDS","dist_m":4633,"zone_id":"R138927","website_link":"https://heritagedata.maps.arcgis.com/apps/webappviewer/index.html?id=0c9eb9575b544081b0d296436d8f60f8&query=18a4b61b268-layer-9%2CSMRS%2CKK023-056----","label_fr":"Enceinte — Newlands","complex":null}},{"type":"Feature","geometry":{"type":"Point","coordinates":[-7.258353,52.599687]},"properties":{"SMRS":"KK023-042----","ENTITY_ID":"KK02263","MONUMENT_CLASS":"Enclosure","TOWNLAND":"GREVINE WEST","dist_m":4731,"zone_id":"R139004","website_link":"https://heritagedata.maps.arcgis.com/apps/webappviewer/index.html?id=0c9eb9575b544081b0d296436d8f60f8&query=18a4b61b268-layer-9%2CSMRS%2CKK023-042----","label_fr":"Enceinte — Grevine West","complex":null}},{"type":"Feature","geometry":{"type":"Point","coordinates":[-7.375259,52.569028]},"properties":{"SMRS":"KK022-053----","ENTITY_ID":"KK02191","MONUMENT_CLASS":"Fulacht fia","TOWNLAND":"KNOCKREAGH","dist_m":4756,"zone_id":"R138860","website_link":"https://heritagedata.maps.arcgis.com/apps/webappviewer/index.html?id=0c9eb9575b544081b0d296436d8f60f8&query=18a4b61b268-layer-9%2CSMRS%2CKK022-053----","label_fr":"Fulacht fia (foyer culinaire) — Knockreagh","complex":null}},{"type":"Feature","geometry":{"type":"Point","coordinates":[-7.381404,52.572602]},"properties":{"SMRS":"KK022-049----","ENTITY_ID":"KK02187","MONUMENT_CLASS":"Burial","TOWNLAND":"GRAIGUEOOLY","dist_m":4771,"zone_id":"R138879","website_link":"https://heritagedata.maps.arcgis.com/apps/webappviewer/index.html?id=0c9eb9575b544081b0d296436d8f60f8&query=18a4b61b268-layer-9%2CSMRS%2CKK022-049----","label_fr":"Sépultures humaines découvertes vers 1980, Graigueooly","complex":null}},{"type":"Feature","geometry":{"type":"Point","coordinates":[-7.328608,52.557879]},"properties":{"SMRS":"KK027-079----","ENTITY_ID":"KK04861","MONUMENT_CLASS":"Enclosure","TOWNLAND":"NEWTOWN (Baker)","dist_m":4788,"zone_id":"R138790","website_link":"https://heritagedata.maps.arcgis.com/apps/webappviewer/index.html?id=0c9eb9575b544081b0d296436d8f60f8&query=18a4b61b268-layer-9%2CSMRS%2CKK027-079----","label_fr":"Enceinte — Newtown (Baker)","complex":null}},{"type":"Feature","geometry":{"type":"Point","coordinates":[-7.298886,52.640524]},"properties":{"SMRS":"KK019-031----","ENTITY_ID":"KK01817","MONUMENT_CLASS":"Enclosure","TOWNLAND":"CASTLEBLUNDEN","dist_m":4831,"zone_id":"R139221","website_link":"https://heritagedata.maps.arcgis.com/apps/webappviewer/index.html?id=0c9eb9575b544081b0d296436d8f60f8&query=18a4b61b268-layer-9%2CSMRS%2CKK019-031----","label_fr":"Enceinte — Castleblunden","complex":null}},{"type":"Feature","geometry":{"type":"Point","coordinates":[-7.382905,52.571809]},"properties":{"SMRS":"KK022-024----","ENTITY_ID":"KK02157","MONUMENT_CLASS":"Ringfort - rath","TOWNLAND":"GRAIGUEOOLY","dist_m":4905,"zone_id":"R138875","website_link":"https://heritagedata.maps.arcgis.com/apps/webappviewer/index.html?id=0c9eb9575b544081b0d296436d8f60f8&query=18a4b61b268-layer-9%2CSMRS%2CKK022-024----","label_fr":"Ringfort de Graigueooly","complex":null}},{"type":"Feature","geometry":{"type":"Point","coordinates":[-7.345772,52.64428]},"properties":{"SMRS":"KK018-051005-","ENTITY_ID":"KK05337","MONUMENT_CLASS":"Wall monument","TOWNLAND":"MICHAELSCHURCH","dist_m":4960,"zone_id":"R139237","website_link":"https://heritagedata.maps.arcgis.com/apps/webappviewer/index.html?id=0c9eb9575b544081b0d296436d8f60f8&query=18a4b61b268-layer-9%2CSMRS%2CKK018-051005-","label_fr":"Monument mural — Michaelschurch","complex":null}},{"type":"Feature","geometry":{"type":"Point","coordinates":[-7.345919,52.64429]},"properties":{"SMRS":"KK018-051004-","ENTITY_ID":"KK01682","MONUMENT_CLASS":"Wall monument","TOWNLAND":"MICHAELSCHURCH","dist_m":4964,"zone_id":"R139237","website_link":"https://heritagedata.maps.arcgis.com/apps/webappviewer/index.html?id=0c9eb9575b544081b0d296436d8f60f8&query=18a4b61b268-layer-9%2CSMRS%2CKK018-051004-","label_fr":"Monument mural — Michaelschurch","complex":null}},{"type":"Feature","geometry":{"type":"Point","coordinates":[-7.345919,52.644299]},"properties":{"SMRS":"KK018-051001-","ENTITY_ID":"KK01679","MONUMENT_CLASS":"Church","TOWNLAND":"MICHAELSCHURCH","dist_m":4965,"zone_id":"R139237","website_link":"https://heritagedata.maps.arcgis.com/apps/webappviewer/index.html?id=0c9eb9575b544081b0d296436d8f60f8&query=18a4b61b268-layer-9%2CSMRS%2CKK018-051001-","label_fr":"Église — Michaelschurch","complex":null}},{"type":"Feature","geometry":{"type":"Point","coordinates":[-7.346052,52.644308]},"properties":{"SMRS":"KK018-051002-","ENTITY_ID":"KK01680","MONUMENT_CLASS":"Graveyard","TOWNLAND":"MICHAELSCHURCH","dist_m":4968,"zone_id":"R139237","website_link":"https://heritagedata.maps.arcgis.com/apps/webappviewer/index.html?id=0c9eb9575b544081b0d296436d8f60f8&query=18a4b61b268-layer-9%2CSMRS%2CKK018-051002-","label_fr":"Cimetière — Michaelschurch","complex":null}},{"type":"Feature","geometry":{"type":"Point","coordinates":[-7.383593,52.571184]},"properties":{"SMRS":"KK022-050----","ENTITY_ID":"KK02188","MONUMENT_CLASS":"Fulacht fia","TOWNLAND":"GRAIGUEOOLY","dist_m":4986,"zone_id":"R138875","website_link":"https://heritagedata.maps.arcgis.com/apps/webappviewer/index.html?id=0c9eb9575b544081b0d296436d8f60f8&query=18a4b61b268-layer-9%2CSMRS%2CKK022-050----","label_fr":"Fulacht fia (foyer culinaire) — Graigueooly","complex":null}},{"type":"Feature","geometry":{"type":"Polygon","coordinates":[[[-7.326966,52.601508],[-7.326888,52.601456],[-7.326815,52.601401],[-7.326748,52.601343],[-7.326688,52.601283],[-7.326634,52.60122],[-7.326587,52.601156],[-7.326548,52.601089],[-7.326515,52.601022],[-7.32649,52.600953],[-7.326472,52.600883],[-7.326462,52.600813],[-7.326459,52.600742],[-7.326464,52.600672],[-7.326476,52.600601],[-7.326496,52.600532],[-7.326523,52.600463],[-7.326555,52.600402],[-7.326563,52.600387],[-7.326566,52.600382],[-7.326608,52.600316],[-7.326657,52.600252],[-7.326712,52.60019],[-7.326775,52.60013],[-7.326843,52.600073],[-7.326917,52.600019],[-7.326997,52.599968],[-7.327083,52.59992],[-7.327173,52.599876],[-7.327268,52.599836],[-7.327367,52.599799],[-7.32747,52.599766],[-7.327576,52.599738],[-7.327684,52.599713],[-7.327796,52.599694],[-7.327909,52.599678],[-7.328023,52.599667],[-7.328139,52.599661],[-7.328255,52.599659],[-7.32837,52.599662],[-7.328486,52.59967],[-7.3286,52.599682],[-7.328713,52.599699],[-7.328823,52.59972],[-7.328931,52.599745],[-7.329036,52.599775],[-7.329138,52.599809],[-7.329236,52.599847],[-7.32933,52.599888],[-7.329418,52.599934],[-7.329502,52.599982],[-7.329581,52.600034],[-7.329653,52.600089],[-7.32972,52.600147],[-7.32978,52.600207],[-7.329834,52.60027],[-7.329881,52.600334],[-7.329921,52.600401],[-7.329953,52.600468],[-7.329979,52.600537],[-7.329996,52.600607],[-7.330007,52.600677],[-7.330009,52.600748],[-7.330005,52.600818],[-7.329992,52.600889],[-7.329972,52.600958],[-7.329945,52.601027],[-7.329913,52.601088],[-7.329905,52.601103],[-7.329902,52.601108],[-7.32986,52.601174],[-7.329811,52.601238],[-7.329756,52.6013],[-7.329694,52.60136],[-7.329625,52.601417],[-7.329551,52.601471],[-7.329471,52.601522],[-7.329386,52.60157],[-7.329295,52.601614],[-7.329201,52.601654],[-7.329102,52.601691],[-7.328999,52.601724],[-7.328893,52.601752],[-7.328784,52.601777],[-7.328673,52.601796],[-7.32856,52.601812],[-7.328445,52.601823],[-7.32833,52.601829],[-7.328214,52.601831],[-7.328098,52.601828],[-7.327983,52.60182],[-7.327868,52.601808],[-7.327756,52.601791],[-7.327645,52.60177],[-7.327537,52.601745],[-7.327432,52.601715],[-7.32733,52.601681],[-7.327232,52.601643],[-7.327139,52.601602],[-7.32705,52.601556],[-7.326966,52.601508]]]},"properties":{"kind":"zone_notification","zone_id":"R139005","label_fr":"Zone de notification RMP — village déserté, motte et moated site de Tullaghanbrogue/Grove"}},{"type":"Feature","geometry":{"type":"Polygon","coordinates":[[[-7.331397,52.600476],[-7.331398,52.600474],[-7.331398,52.600474],[-7.331441,52.600418],[-7.331441,52.600418],[-7.331494,52.600366],[-7.331494,52.600366],[-7.331556,52.600317],[-7.331557,52.600317],[-7.331628,52.600274],[-7.331628,52.600274],[-7.331706,52.600235],[-7.331792,52.600202],[-7.331792,52.600202],[-7.331883,52.600176],[-7.331883,52.600176],[-7.331979,52.600156],[-7.331979,52.600156],[-7.332077,52.600142],[-7.332078,52.600142],[-7.332178,52.600136],[-7.332279,52.600136],[-7.332379,52.600144],[-7.33238,52.600144],[-7.332478,52.600158],[-7.332478,52.600158],[-7.332573,52.60018],[-7.332573,52.60018],[-7.332663,52.600207],[-7.332663,52.600207],[-7.332748,52.600241],[-7.332825,52.60028],[-7.332825,52.60028],[-7.332895,52.600325],[-7.332895,52.600325],[-7.332956,52.600374],[-7.332956,52.600374],[-7.333007,52.600427],[-7.333008,52.600427],[-7.333049,52.600483],[-7.333049,52.600483],[-7.333079,52.600542],[-7.333079,52.600542],[-7.333098,52.600602],[-7.333098,52.600603],[-7.333106,52.600664],[-7.333106,52.600664],[-7.333102,52.600725],[-7.333102,52.600725],[-7.333087,52.600786],[-7.333087,52.600786],[-7.33306,52.600846],[-7.333023,52.600903],[-7.333023,52.600903],[-7.332975,52.600957],[-7.332975,52.600957],[-7.332917,52.601007],[-7.332917,52.601008],[-7.332896,52.601022],[-7.332893,52.601024],[-7.332891,52.601026],[-7.332873,52.601055],[-7.332873,52.601055],[-7.332825,52.601109],[-7.332825,52.601109],[-7.332767,52.601159],[-7.332767,52.60116],[-7.3327,52.601206],[-7.3327,52.601206],[-7.332625,52.601247],[-7.332625,52.601247],[-7.332543,52.601283],[-7.332542,52.601283],[-7.332454,52.601312],[-7.332454,52.601312],[-7.332361,52.601336],[-7.33236,52.601336],[-7.332263,52.601353],[-7.332263,52.601353],[-7.332163,52.601363],[-7.332163,52.601363],[-7.332062,52.601366],[-7.331961,52.601361],[-7.331961,52.601361],[-7.331862,52.60135],[-7.331862,52.60135],[-7.331765,52.601333],[-7.331765,52.601332],[-7.331672,52.601308],[-7.331672,52.601308],[-7.331585,52.601277],[-7.331585,52.601277],[-7.331503,52.601241],[-7.331503,52.60124],[-7.33143,52.601199],[-7.331429,52.601198],[-7.331364,52.601152],[-7.331364,52.601152],[-7.331308,52.6011],[-7.331308,52.6011],[-7.331261,52.601046],[-7.331261,52.601046],[-7.331226,52.600988],[-7.331201,52.600929],[-7.331201,52.600928],[-7.331187,52.600867],[-7.331187,52.600867],[-7.331185,52.600806],[-7.331185,52.600806],[-7.331195,52.600745],[-7.331195,52.600744],[-7.331216,52.600684],[-7.331216,52.600684],[-7.331248,52.600626],[-7.331248,52.600626],[-7.331291,52.60057],[-7.331291,52.60057],[-7.331344,52.600518],[-7.331344,52.600518],[-7.331396,52.600478],[-7.331396,52.600477],[-7.331397,52.600476]]]},"properties":{"kind":"zone_notification","zone_id":"R139014","label_fr":"Zone de notification RMP — église et cimetière de Tullaghanbrogue/Grove"}}]}